{
  "links" : {
    "next" : "https://api.nasa.gov/neo/rest/v1/feed?start_date=1998-04-16&end_date=1998-04-16&detailed=true&api_key=t0TVs3DtDT2H8Oy2Zy8m2eVrNsAVKAexjcZXUckd",
    "prev" : "https://api.nasa.gov/neo/rest/v1/feed?start_date=1998-04-14&end_date=1998-04-14&detailed=true&api_key=t0TVs3DtDT2H8Oy2Zy8m2eVrNsAVKAexjcZXUckd",
    "self" : "https://api.nasa.gov/neo/rest/v1/feed?start_date=1998-04-15&end_date=1998-04-15&detailed=true&api_key=t0TVs3DtDT2H8Oy2Zy8m2eVrNsAVKAexjcZXUckd"
  },
  "element_count" : 7,
  "near_earth_objects" : {
    "1998-04-15" : [ {
      "links" : {
        "self" : "https://api.nasa.gov/neo/rest/v1/neo/3670102?api_key=t0TVs3DtDT2H8Oy2Zy8m2eVrNsAVKAexjcZXUckd"
      },
      "neo_reference_id" : "3670102",
      "name" : "(2014 HV177)",
      "nasa_jpl_url" : "http://ssd.jpl.nasa.gov/sbdb.cgi?sstr=3670102",
      "absolute_magnitude_h" : 21.0,
      "estimated_diameter" : {
        "kilometers" : {
          "estimated_diameter_min" : 0.1677084622,
          "estimated_diameter_max" : 0.3750075218
        },
        "meters" : {
          "estimated_diameter_min" : 167.7084621628,
          "estimated_diameter_max" : 375.0075217981
        },
        "miles" : {
          "estimated_diameter_min" : 0.1042091748,
          "estimated_diameter_max" : 0.2330187988
        },
        "feet" : {
          "estimated_diameter_min" : 550.2246310023,
          "estimated_diameter_max" : 1230.3396778159
        }
      },
      "is_potentially_hazardous_asteroid" : true,
      "close_approach_data" : [ {
        "close_approach_date" : "1998-04-15",
        "epoch_date_close_approach" : 892623600000,
        "relative_velocity" : {
          "kilometers_per_second" : "16.1828140915",
          "kilometers_per_hour" : "58258.1307292308",
          "miles_per_hour" : "36199.3368411712"
        },
        "miss_distance" : {
          "astronomical" : "0.2538233938",
          "lunar" : "98.7373046875",
          "kilometers" : "37971440",
          "miles" : "23594360"
        },
        "orbiting_body" : "Earth"
      } ],
      "orbital_data" : {
        "orbit_id" : "18",
        "orbit_determination_date" : "2017-07-24 05:38:21",
        "orbit_uncertainty" : "1",
        "minimum_orbit_intersection" : ".0379556",
        "jupiter_tisserand_invariant" : "3.473",
        "epoch_osculation" : "2458000.5",
        "eccentricity" : ".5520847630808267",
        "semi_major_axis" : "2.168423809538393",
        "inclination" : "4.579955832470131",
        "ascending_node_longitude" : "24.53498606195295",
        "orbital_period" : "1166.311821921134",
        "perihelion_distance" : ".971270064390566",
        "perihelion_argument" : "127.5857938388203",
        "aphelion_distance" : "3.365577554686221",
        "perihelion_time" : "2457892.100770830812",
        "mean_anomaly" : "33.45908166876715",
        "mean_motion" : ".3086653099400232",
        "equinox" : "J2000"
      }
    } ]
  }
}